NUSAT-50 (NANCY ROMAN)  
1 60493U 24149AB  26068.80227738  .00012094  00000+0  42252-3 0  9994
2 60493  97.3817 150.7693 0002523 238.0469 122.0527 15.29713355 86930
STARLINK-34597          
1 64738U 25144Q   26068.60834185  .00018832  00000+0  64685-3 0  9994
2 64738  53.1586 181.1166 0001046 100.1290 259.9829 15.30174017 39685
